STARLINK-32865          
1 62952U 25029E   26068.72441104  .00025974  00000+0  88601-3 0  9999
2 62952  53.1590 232.2423 0000855  75.4420 284.6676 15.30200671 61334
ION SCV-017             
1 63230U 25052W   26068.71648816  .00006457  00000+0  24539-3 0  9998
2 63230  97.4016 324.7516 0023746  44.9875 315.3282 15.26881798 54851
